[{"OBJECT_NAME":"ONEWEB-0181","OBJECT_ID":"2021-031W","EPOCH":"2025-10-19T04:22:18.553152","MEAN_MOTION":13.14503242,"ECCENTRICITY":0.00020639,"INCLINATION":87.9025,"RA_OF_ASC_NODE":337.7581,"ARG_OF_PERICENTER":98.075,"MEAN_ANOMALY":262.0614,"EPHEMERIS_TYPE":0,"CLASSIFICATION_TYPE":"U","NORAD_CAT_ID":48230,"ELEMENT_SET_NO":999,"REV_AT_EPOCH":21657,"BSTAR":0.00023898659,"MEAN_MOTION_DOT":1.01e-6,"MEAN_MOTION_DDOT":0},{"OBJECT_NAME":"ONEWEB-0188","OBJECT_ID":"2021-031X","EPOCH":"2025-10-19T03:27:29.045088","MEAN_MOTION":13.14503907,"ECCENTRICITY":0.00018577,"INCLINATION":87.9028,"RA_OF_ASC_NODE":337.7609,"ARG_OF_PERICENTER":95.5086,"MEAN_ANOMALY":264.6256,"EPHEMERIS_TYPE":0,"CLASSIFICATION_TYPE":"U","NORAD_CAT_ID":48231,"ELEMENT_SET_NO":999,"REV_AT_EPOCH":21647,"BSTAR":2.6758841e-5,"MEAN_MOTION_DOT":2.3e-7,"MEAN_MOTION_DDOT":0},{"OBJECT_NAME":"ONEWEB-0220","OBJECT_ID":"2021-031Y","EPOCH":"2025-10-19T04:24:34.312608","MEAN_MOTION":13.14505149,"ECCENTRICITY":0.00020077,"INCLINATION":87.904,"RA_OF_ASC_NODE":337.6944,"ARG_OF_PERICENTER":91.5125,"MEAN_ANOMALY":268.6235,"EPHEMERIS_TYPE":0,"CLASSIFICATION_TYPE":"U","NORAD_CAT_ID":48232,"ELEMENT_SET_NO":999,"REV_AT_EPOCH":21674,"BSTAR":0.00035217932,"MEAN_MOTION_DOT":1.43e-6,"MEAN_MOTION_DDOT":0},{"OBJECT_NAME":"ONEWEB-0165","OBJECT_ID":"2021-031Z","EPOCH":"2025-10-19T05:05:41.756640","MEAN_MOTION":13.14502832,"ECCENTRICITY":0.00020263,"INCLINATION":87.9023,"RA_OF_ASC_NODE":337.7235,"ARG_OF_PERICENTER":94.8736,"MEAN_ANOMALY":265.2625,"EPHEMERIS_TYPE":0,"CLASSIFICATION_TYPE":"U","NORAD_CAT_ID":48233,"ELEMENT_SET_NO":999,"REV_AT_EPOCH":21670,"BSTAR":0.00021598576,"MEAN_MOTION_DOT":9.3e-7,"MEAN_MOTION_DDOT":0},{"OBJECT_NAME":"ONEWEB-0199","OBJECT_ID":"2021-031AA","EPOCH":"2025-10-19T04:42:50.575680","MEAN_MOTION":13.14504132,"ECCENTRICITY":0.00017291,"INCLINATION":87.9033,"RA_OF_ASC_NODE":337.6962,"ARG_OF_PERICENTER":100.3289,"MEAN_ANOMALY":259.8035,"EPHEMERIS_TYPE":0,"CLASSIFICATION_TYPE":"U","NORAD_CAT_ID":48234,"ELEMENT_SET_NO":999,"REV_AT_EPOCH":21660,"BSTAR":0.00081872575,"MEAN_MOTION_DOT":3.16e-6,"MEAN_MOTION_DDOT":0},{"OBJECT_NAME":"ONEWEB-0203","OBJECT_ID":"2021-031AB","EPOCH":"2025-10-19T04:29:09.373920","MEAN_MOTION":13.14503034,"ECCENTRICITY":0.00019323,"INCLINATION":87.9035,"RA_OF_ASC_NODE":337.6994,"ARG_OF_PERICENTER":105.3545,"MEAN_ANOMALY":254.7798,"EPHEMERIS_TYPE":0,"CLASSIFICATION_TYPE":"U","NORAD_CAT_ID":48235,"ELEMENT_SET_NO":999,"REV_AT_EPOCH":21661,"BSTAR":0.00044992878,"MEAN_MOTION_DOT":1.8e-6,"MEAN_MOTION_DDOT":0},{"OBJECT_NAME":"ONEWEB-0197","OBJECT_ID":"2021-031AC","EPOCH":"2025-10-19T03:52:24.626496","MEAN_MOTION":13.14504279,"ECCENTRICITY":0.00017368,"INCLINATION":87.9034,"RA_OF_ASC_NODE":337.7026,"ARG_OF_PERICENTER":87.0762,"MEAN_ANOMALY":273.0566,"EPHEMERIS_TYPE":0,"CLASSIFICATION_TYPE":"U","NORAD_CAT_ID":48236,"ELEMENT_SET_NO":999,"REV_AT_EPOCH":21652,"BSTAR":-0.00022921467,"MEAN_MOTION_DOT":-7.2e-7,"MEAN_MOTION_DDOT":0},{"OBJECT_NAME":"ONEWEB-0194","OBJECT_ID":"2021-031AD","EPOCH":"2025-10-19T03:22:56.144640","MEAN_MOTION":13.14502786,"ECCENTRICITY":0.00017115,"INCLINATION":87.9038,"RA_OF_ASC_NODE":337.7228,"ARG_OF_PERICENTER":103.66,"MEAN_ANOMALY":256.472,"EPHEMERIS_TYPE":0,"CLASSIFICATION_TYPE":"U","NORAD_CAT_ID":48237,"ELEMENT_SET_NO":999,"REV_AT_EPOCH":21669,"BSTAR":1.9770943e-5,"MEAN_MOTION_DOT":2.0e-7,"MEAN_MOTION_DDOT":0},{"OBJECT_NAME":"ONEWEB-0193","OBJECT_ID":"2021-031AE","EPOCH":"2025-10-19T03:45:43.892064","MEAN_MOTION":13.14512885,"ECCENTRICITY":0.00016239,"INCLINATION":87.9026,"RA_OF_ASC_NODE":337.7162,"ARG_OF_PERICENTER":107.2624,"MEAN_ANOMALY":252.8683,"EPHEMERIS_TYPE":0,"CLASSIFICATION_TYPE":"U","NORAD_CAT_ID":48238,"ELEMENT_SET_NO":999,"REV_AT_EPOCH":21664,"BSTAR":0.001410484,"MEAN_MOTION_DOT":5.36e-6,"MEAN_MOTION_DDOT":0},{"OBJECT_NAME":"ONEWEB-0191","OBJECT_ID":"2021-031AF","EPOCH":"2025-10-19T04:01:44.088960","MEAN_MOTION":13.14504697,"ECCENTRICITY":0.00017986,"INCLINATION":87.9044,"RA_OF_ASC_NODE":337.6982,"ARG_OF_PERICENTER":97.3766,"MEAN_ANOMALY":262.7569,"EPHEMERIS_TYPE":0,"CLASSIFICATION_TYPE":"U","NORAD_CAT_ID":48239,"ELEMENT_SET_NO":999,"REV_AT_EPOCH":21650,"BSTAR":-0.00035610193,"MEAN_MOTION_DOT":-1.19e-6,"MEAN_MOTION_DDOT":0},{"OBJECT_NAME":"ONEWEB-0195","OBJECT_ID":"2021-031AG","EPOCH":"2025-10-19T03:28:38.412192","MEAN_MOTION":13.14501595,"ECCENTRICITY":0.00022663,"INCLINATION":87.9045,"RA_OF_ASC_NODE":337.6989,"ARG_OF_PERICENTER":98.8875,"MEAN_ANOMALY":261.2511,"EPHEMERIS_TYPE":0,"CLASSIFICATION_TYPE":"U","NORAD_CAT_ID":48240,"ELEMENT_SET_NO":999,"REV_AT_EPOCH":21648,"BSTAR":-0.00011967569,"MEAN_MOTION_DOT":-3.2e-7,"MEAN_MOTION_DDOT":0},{"OBJECT_NAME":"ONEWEB-0201","OBJECT_ID":"2021-031AH","EPOCH":"2025-10-19T05:01:19.900704","MEAN_MOTION":13.14503198,"ECCENTRICITY":0.0002014,"INCLINATION":87.9027,"RA_OF_ASC_NODE":337.734,"ARG_OF_PERICENTER":88.7665,"MEAN_ANOMALY":271.3696,"EPHEMERIS_TYPE":0,"CLASSIFICATION_TYPE":"U","NORAD_CAT_ID":48241,"ELEMENT_SET_NO":999,"REV_AT_EPOCH":21672,"BSTAR":0.00021583545,"MEAN_MOTION_DOT":9.3e-7,"MEAN_MOTION_DDOT":0},{"OBJECT_NAME":"ONEWEB-0207","OBJECT_ID":"2021-031AJ","EPOCH":"2025-10-19T04:32:34.692288","MEAN_MOTION":13.14503176,"ECCENTRICITY":0.00018563,"INCLINATION":87.9033,"RA_OF_ASC_NODE":337.6946,"ARG_OF_PERICENTER":90.4348,"MEAN_ANOMALY":269.6995,"EPHEMERIS_TYPE":0,"CLASSIFICATION_TYPE":"U","NORAD_CAT_ID":48242,"ELEMENT_SET_NO":999,"REV_AT_EPOCH":21663,"BSTAR":0.00044772762,"MEAN_MOTION_DOT":1.79e-6,"MEAN_MOTION_DDOT":0},{"OBJECT_NAME":"ONEWEB-0208","OBJECT_ID":"2021-031AK","EPOCH":"2025-10-19T04:06:18.733824","MEAN_MOTION":13.14503871,"ECCENTRICITY":0.00020347,"INCLINATION":87.9037,"RA_OF_ASC_NODE":337.7142,"ARG_OF_PERICENTER":98.505,"MEAN_ANOMALY":261.631,"EPHEMERIS_TYPE":0,"CLASSIFICATION_TYPE":"U","NORAD_CAT_ID":48243,"ELEMENT_SET_NO":999,"REV_AT_EPOCH":21664,"BSTAR":-0.00042704381,"MEAN_MOTION_DOT":-1.46e-6,"MEAN_MOTION_DDOT":0},{"OBJECT_NAME":"ONEWEB-0200","OBJECT_ID":"2021-031AL","EPOCH":"2025-10-19T03:13:47.982432","MEAN_MOTION":13.14502401,"ECCENTRICITY":0.00019522,"INCLINATION":87.9038,"RA_OF_ASC_NODE":337.7113,"ARG_OF_PERICENTER":96.7385,"MEAN_ANOMALY":263.3967,"EPHEMERIS_TYPE":0,"CLASSIFICATION_TYPE":"U","NORAD_CAT_ID":48244,"ELEMENT_SET_NO":999,"REV_AT_EPOCH":21656,"BSTAR":0.00053865442,"MEAN_MOTION_DOT":2.12e-6,"MEAN_MOTION_DDOT":0},{"OBJECT_NAME":"ONEWEB-0217","OBJECT_ID":"2021-031AM","EPOCH":"2025-10-19T03:36:37.869120","MEAN_MOTION":13.1450323,"ECCENTRICITY":0.00021586,"INCLINATION":87.9046,"RA_OF_ASC_NODE":337.6978,"ARG_OF_PERICENTER":100.1735,"MEAN_ANOMALY":259.9638,"EPHEMERIS_TYPE":0,"CLASSIFICATION_TYPE":"U","NORAD_CAT_ID":48245,"ELEMENT_SET_NO":999,"REV_AT_EPOCH":21651,"BSTAR":-0.00037077627,"MEAN_MOTION_DOT":-1.25e-6,"MEAN_MOTION_DDOT":0}]
