ONEWEB-0181             
1 48230U 21031W   25292.18215918  .00000101  00000+0  23899-3 0  9994
2 48230  87.9025 337.7581 0002063  98.0750 262.0614 13.14503242216571
ONEWEB-0188             
1 48231U 21031X   25292.14408617  .00000023  00000+0  26759-4 0  9993
2 48231  87.9028 337.7609 0001857  95.5086 264.6256 13.14503907216477
ONEWEB-0220             
1 48232U 21031Y   25292.18373047  .00000143  00000+0  35218-3 0  9998
2 48232  87.9040 337.6944 0002007  91.5125 268.6235 13.14505149216742
ONEWEB-0165             
1 48233U 21031Z   25292.21228885  .00000093  00000+0  21599-3 0  9993
2 48233  87.9023 337.7235 0002026  94.8736 265.2625 13.14502832216701
ONEWEB-0199             
1 48234U 21031AA  25292.19641870  .00000316  00000+0  81873-3 0  9993
2 48234  87.9033 337.6962 0001729 100.3289 259.8035 13.14504132216602
ONEWEB-0203             
1 48235U 21031AB  25292.18691405  .00000180  00000+0  44993-3 0  9993
2 48235  87.9035 337.6994 0001932 105.3545 254.7798 13.14503034216617
ONEWEB-0197             
1 48236U 21031AC  25292.16139614 -.00000072  00000+0 -22921-3 0  9990
2 48236  87.9034 337.7026 0001736  87.0762 273.0566 13.14504279216522
ONEWEB-0194             
1 48237U 21031AD  25292.14092760  .00000020  00000+0  19771-4 0  9990
2 48237  87.9038 337.7228 0001711 103.6600 256.4720 13.14502786216696
ONEWEB-0193             
1 48238U 21031AE  25292.15675801  .00000536  00000+0  14105-2 0  9991
2 48238  87.9026 337.7162 0001623 107.2624 252.8683 13.14512885216643
ONEWEB-0191             
1 48239U 21031AF  25292.16787140 -.00000119  00000+0 -35610-3 0  9997
2 48239  87.9044 337.6982 0001798  97.3766 262.7569 13.14504697216502
ONEWEB-0195             
1 48240U 21031AG  25292.14488903 -.00000032  00000+0 -11968-3 0  9996
2 48240  87.9045 337.6989 0002266  98.8875 261.2511 13.14501595216482
ONEWEB-0201             
1 48241U 21031AH  25292.20925811  .00000093  00000+0  21584-3 0  9998
2 48241  87.9027 337.7340 0002014  88.7665 271.3696 13.14503198216725
ONEWEB-0207             
1 48242U 21031AJ  25292.18929042  .00000179  00000+0  44773-3 0  9996
2 48242  87.9033 337.6946 0001856  90.4348 269.6995 13.14503176216633
ONEWEB-0208             
1 48243U 21031AK  25292.17105016 -.00000146  00000+0 -42704-3 0  9991
2 48243  87.9037 337.7142 0002034  98.5050 261.6310 13.14503871216641
ONEWEB-0200             
1 48244U 21031AL  25292.13458313  .00000212  00000+0  53865-3 0  9991
2 48244  87.9038 337.7113 0001952  96.7385 263.3967 13.14502401216566
ONEWEB-0217             
1 48245U 21031AM  25292.15043830 -.00000125  00000+0 -37078-3 0  9991
2 48245  87.9046 337.6978 0002158 100.1735 259.9638 13.14503230216514
